{"fetched_at":"2026-07-07T07:58:50.970Z","source":"https://celestrak.org/NORAD/elements/gp.php?NAME=SENTINEL&FORMAT=JSON","constellation":"sentinel-3","records":[{"OBJECT_NAME":"SENTINEL-3A","OBJECT_ID":"2016-011A","EPOCH":"2026-07-06T20:28:13.526976","CLASSIFICATION_TYPE":"U","MEAN_MOTION":14.26738142,"ECCENTRICITY":0.000141,"INCLINATION":98.624,"RA_OF_ASC_NODE":254.9533,"ARG_OF_PERICENTER":92.8083,"MEAN_ANOMALY":267.3259,"EPHEMERIS_TYPE":0,"NORAD_CAT_ID":41335,"ELEMENT_SET_NO":999,"REV_AT_EPOCH":54086,"BSTAR":0.000049658,"MEAN_MOTION_DOT":7.7e-7,"MEAN_MOTION_DDOT":0},{"OBJECT_NAME":"SENTINEL-3B","OBJECT_ID":"2018-039A","EPOCH":"2026-07-06T16:27:33.590880","CLASSIFICATION_TYPE":"U","MEAN_MOTION":14.26740398,"ECCENTRICITY":0.000096,"INCLINATION":98.6239,"RA_OF_ASC_NODE":254.9376,"ARG_OF_PERICENTER":118.291,"MEAN_ANOMALY":241.8368,"EPHEMERIS_TYPE":0,"NORAD_CAT_ID":43437,"ELEMENT_SET_NO":999,"REV_AT_EPOCH":42690,"BSTAR":0.00005845,"MEAN_MOTION_DOT":9.8e-7,"MEAN_MOTION_DDOT":0}]}
