SENTINEL-3A             
1 41335U 16011A   26187.85293434  .00000077  00000+0  49658-4 0  9996
2 41335  98.6240 254.9533 0001410  92.8083 267.3259 14.26738142540869
SENTINEL-3B             
1 43437U 18039A   26187.68580545  .00000098  00000+0  58450-4 0  9999
2 43437  98.6239 254.9376 0000960 118.2910 241.8368 14.26740398426900
